[{"OBJECT_NAME":"ATLAS CENTAUR 2","OBJECT_ID":"1963-047A","EPOCH":"2026-03-29T03:03:16.771680","MEAN_MOTION":14.12145716,"ECCENTRICITY":0.0547436,"INCLINATION":30.3575,"RA_OF_ASC_NODE":87.0065,"ARG_OF_PERICENTER":251.606,"MEAN_ANOMALY":102.4279,"EPHEMERIS_TYPE":0,"CLASSIFICATION_TYPE":"U","NORAD_CAT_ID":694,"ELEMENT_SET_NO":999,"REV_AT_EPOCH":13437,"BSTAR":0.00035676,"MEAN_MOTION_DOT":3.034e-5,"MEAN_MOTION_DDOT":0},{"OBJECT_NAME":"THOR AGENA D R/B","OBJECT_ID":"1964-002A","EPOCH":"2026-03-29T01:24:29.646144","MEAN_MOTION":14.34030182,"ECCENTRICITY":0.0032574,"INCLINATION":99.1214,"RA_OF_ASC_NODE":102.4516,"ARG_OF_PERICENTER":200.463,"MEAN_ANOMALY":159.525,"EPHEMERIS_TYPE":0,"CLASSIFICATION_TYPE":"U","NORAD_CAT_ID":733,"ELEMENT_SET_NO":999,"REV_AT_EPOCH":24107,"BSTAR":9.5e-5,"MEAN_MOTION_DOT":2.18e-6,"MEAN_MOTION_DDOT":0},{"OBJECT_NAME":"SL-3 R/B","OBJECT_ID":"1964-053B","EPOCH":"2026-03-28T22:07:24.174912","MEAN_MOTION":14.61381015,"ECCENTRICITY":0.0080415,"INCLINATION":65.0756,"RA_OF_ASC_NODE":274.8505,"ARG_OF_PERICENTER":286.1773,"MEAN_ANOMALY":73.0488,"EPHEMERIS_TYPE":0,"CLASSIFICATION_TYPE":"U","NORAD_CAT_ID":877,"ELEMENT_SET_NO":999,"REV_AT_EPOCH":26960,"BSTAR":6.4749e-5,"MEAN_MOTION_DOT":2.09e-6,"MEAN_MOTION_DDOT":0},{"OBJECT_NAME":"SL-8 R/B","OBJECT_ID":"1967-045B","EPOCH":"2026-03-29T02:09:27.189792","MEAN_MOTION":14.45637631,"ECCENTRICITY":0.0064885,"INCLINATION":74.0111,"RA_OF_ASC_NODE":311.8596,"ARG_OF_PERICENTER":313.8293,"MEAN_ANOMALY":45.7511,"EPHEMERIS_TYPE":0,"CLASSIFICATION_TYPE":"U","NORAD_CAT_ID":2802,"ELEMENT_SET_NO":999,"REV_AT_EPOCH":9182,"BSTAR":9.1647e-5,"MEAN_MOTION_DOT":3.04e-6,"MEAN_MOTION_DDOT":0},{"OBJECT_NAME":"SL-8 R/B","OBJECT_ID":"1968-040B","EPOCH":"2026-03-28T21:00:42.150240","MEAN_MOTION":15.03383897,"ECCENTRICITY":0.0023228,"INCLINATION":74.0295,"RA_OF_ASC_NODE":274.4851,"ARG_OF_PERICENTER":90.6913,"MEAN_ANOMALY":269.6937,"EPHEMERIS_TYPE":0,"CLASSIFICATION_TYPE":"U","NORAD_CAT_ID":3230,"ELEMENT_SET_NO":999,"REV_AT_EPOCH":9289,"BSTAR":0.00029303,"MEAN_MOTION_DOT":3.966e-5,"MEAN_MOTION_DDOT":0},{"OBJECT_NAME":"OAO 2","OBJECT_ID":"1968-110A","EPOCH":"2026-03-29T05:41:59.701920","MEAN_MOTION":14.4731885,"ECCENTRICITY":0.0005703,"INCLINATION":34.9924,"RA_OF_ASC_NODE":156.0797,"ARG_OF_PERICENTER":348.5775,"MEAN_ANOMALY":11.4785,"EPHEMERIS_TYPE":0,"CLASSIFICATION_TYPE":"U","NORAD_CAT_ID":3597,"ELEMENT_SET_NO":999,"REV_AT_EPOCH":2193,"BSTAR":8.3557e-5,"MEAN_MOTION_DOT":2.91e-6,"MEAN_MOTION_DDOT":0},{"OBJECT_NAME":"ISIS 1","OBJECT_ID":"1969-009A","EPOCH":"2026-03-29T04:33:37.164672","MEAN_MOTION":11.30419292,"ECCENTRICITY":0.170783,"INCLINATION":88.4506,"RA_OF_ASC_NODE":153.1804,"ARG_OF_PERICENTER":49.8257,"MEAN_ANOMALY":324.0243,"EPHEMERIS_TYPE":0,"CLASSIFICATION_TYPE":"U","NORAD_CAT_ID":3669,"ELEMENT_SET_NO":999,"REV_AT_EPOCH":35073,"BSTAR":0.00010247,"MEAN_MOTION_DOT":1.63e-6,"MEAN_MOTION_DDOT":0},{"OBJECT_NAME":"SERT 2","OBJECT_ID":"1970-009A","EPOCH":"2026-03-29T03:04:50.990880","MEAN_MOTION":13.58731589,"ECCENTRICITY":0.0005633,"INCLINATION":99.2784,"RA_OF_ASC_NODE":30.1608,"ARG_OF_PERICENTER":110.9021,"MEAN_ANOMALY":260.3901,"EPHEMERIS_TYPE":0,"CLASSIFICATION_TYPE":"U","NORAD_CAT_ID":4327,"ELEMENT_SET_NO":999,"REV_AT_EPOCH":78253,"BSTAR":5.0461e-5,"MEAN_MOTION_DOT":-4.0e-8,"MEAN_MOTION_DDOT":0},{"OBJECT_NAME":"SL-3 R/B","OBJECT_ID":"1971-028B","EPOCH":"2026-03-29T03:08:59.504928","MEAN_MOTION":15.62847981,"ECCENTRICITY":0.001452,"INCLINATION":81.2368,"RA_OF_ASC_NODE":27.9882,"ARG_OF_PERICENTER":204.5767,"MEAN_ANOMALY":155.4797,"EPHEMERIS_TYPE":0,"CLASSIFICATION_TYPE":"U","NORAD_CAT_ID":5118,"ELEMENT_SET_NO":999,"REV_AT_EPOCH":99170,"BSTAR":0.00064908,"MEAN_MOTION_DOT":0.00059131,"MEAN_MOTION_DDOT":0},{"OBJECT_NAME":"ASTEX 1","OBJECT_ID":"1971-089A","EPOCH":"2026-03-29T04:53:20.437728","MEAN_MOTION":14.50789619,"ECCENTRICITY":0.0016369,"INCLINATION":92.7091,"RA_OF_ASC_NODE":158.0668,"ARG_OF_PERICENTER":26.8585,"MEAN_ANOMALY":333.3465,"EPHEMERIS_TYPE":0,"CLASSIFICATION_TYPE":"U","NORAD_CAT_ID":5560,"ELEMENT_SET_NO":999,"REV_AT_EPOCH":86513,"BSTAR":0.00014001,"MEAN_MOTION_DOT":5.51e-6,"MEAN_MOTION_DDOT":0},{"OBJECT_NAME":"SL-8 R/B","OBJECT_ID":"1971-119B","EPOCH":"2026-03-29T04:56:24.295200","MEAN_MOTION":14.38232385,"ECCENTRICITY":0.0546459,"INCLINATION":73.8857,"RA_OF_ASC_NODE":139.2307,"ARG_OF_PERICENTER":101.7313,"MEAN_ANOMALY":264.5659,"EPHEMERIS_TYPE":0,"CLASSIFICATION_TYPE":"U","NORAD_CAT_ID":5730,"ELEMENT_SET_NO":999,"REV_AT_EPOCH":65829,"BSTAR":0.00045716,"MEAN_MOTION_DOT":8.737e-5,"MEAN_MOTION_DDOT":0},{"OBJECT_NAME":"OAO 3 (COPERNICUS)","OBJECT_ID":"1972-065A","EPOCH":"2026-03-28T16:41:41.771904","MEAN_MOTION":14.60012766,"ECCENTRICITY":0.00071429,"INCLINATION":35.0049,"RA_OF_ASC_NODE":189.0282,"ARG_OF_PERICENTER":312.8882,"MEAN_ANOMALY":195.3271,"EPHEMERIS_TYPE":0,"CLASSIFICATION_TYPE":"U","NORAD_CAT_ID":6153,"ELEMENT_SET_NO":999,"REV_AT_EPOCH":84897,"BSTAR":7.4322828e-5,"MEAN_MOTION_DOT":3.41e-6,"MEAN_MOTION_DDOT":0},{"OBJECT_NAME":"ATLAS CENTAUR R/B","OBJECT_ID":"1972-065B","EPOCH":"2026-03-28T16:18:12.028032","MEAN_MOTION":14.77739861,"ECCENTRICITY":0.00333671,"INCLINATION":35.0009,"RA_OF_ASC_NODE":194.4615,"ARG_OF_PERICENTER":171.0902,"MEAN_ANOMALY":189.0396,"EPHEMERIS_TYPE":0,"CLASSIFICATION_TYPE":"U","NORAD_CAT_ID":6155,"ELEMENT_SET_NO":999,"REV_AT_EPOCH":84407,"BSTAR":0.00019557868,"MEAN_MOTION_DOT":1.415e-5,"MEAN_MOTION_DDOT":0},{"OBJECT_NAME":"SL-8 R/B","OBJECT_ID":"1975-112B","EPOCH":"2026-03-29T04:31:07.252896","MEAN_MOTION":14.38214966,"ECCENTRICITY":0.0014557,"INCLINATION":74.0628,"RA_OF_ASC_NODE":343.0467,"ARG_OF_PERICENTER":68.2404,"MEAN_ANOMALY":292.0298,"EPHEMERIS_TYPE":0,"CLASSIFICATION_TYPE":"U","NORAD_CAT_ID":8459,"ELEMENT_SET_NO":999,"REV_AT_EPOCH":63467,"BSTAR":9.5432e-5,"MEAN_MOTION_DOT":2.64e-6,"MEAN_MOTION_DDOT":0},{"OBJECT_NAME":"SL-3 R/B","OBJECT_ID":"1977-057B","EPOCH":"2026-03-29T03:20:47.821632","MEAN_MOTION":15.4604497,"ECCENTRICITY":0.0006781,"INCLINATION":97.5793,"RA_OF_ASC_NODE":260.9278,"ARG_OF_PERICENTER":203.9986,"MEAN_ANOMALY":156.0948,"EPHEMERIS_TYPE":0,"CLASSIFICATION_TYPE":"U","NORAD_CAT_ID":10114,"ELEMENT_SET_NO":999,"REV_AT_EPOCH":67133,"BSTAR":0.00037598,"MEAN_MOTION_DOT":0.00018307,"MEAN_MOTION_DDOT":0},{"OBJECT_NAME":"SEASAT 1","OBJECT_ID":"1978-064A","EPOCH":"2026-03-29T03:22:55.423200","MEAN_MOTION":14.46176067,"ECCENTRICITY":0.0002662,"INCLINATION":108.0075,"RA_OF_ASC_NODE":166.3129,"ARG_OF_PERICENTER":276.1081,"MEAN_ANOMALY":83.9761,"EPHEMERIS_TYPE":0,"CLASSIFICATION_TYPE":"U","NORAD_CAT_ID":10967,"ELEMENT_SET_NO":999,"REV_AT_EPOCH":50932,"BSTAR":0.00011804,"MEAN_MOTION_DOT":2.85e-6,"MEAN_MOTION_DDOT":0},{"OBJECT_NAME":"SL-14 R/B","OBJECT_ID":"1979-011B","EPOCH":"2026-03-29T05:33:47.347200","MEAN_MOTION":14.91933743,"ECCENTRICITY":0.0015914,"INCLINATION":82.5209,"RA_OF_ASC_NODE":78.021,"ARG_OF_PERICENTER":358.2932,"MEAN_ANOMALY":1.823,"EPHEMERIS_TYPE":0,"CLASSIFICATION_TYPE":"U","NORAD_CAT_ID":11267,"ELEMENT_SET_NO":999,"REV_AT_EPOCH":53169,"BSTAR":8.3463e-5,"MEAN_MOTION_DOT":8.71e-6,"MEAN_MOTION_DDOT":0}]
